[{"OBJECT_NAME":"ONEWEB-0267","OBJECT_ID":"2021-060U","EPOCH":"2026-03-07T05:29:31.490016","MEAN_MOTION":13.16593285,"ECCENTRICITY":0.00016738,"INCLINATION":87.9004,"RA_OF_ASC_NODE":249.0518,"ARG_OF_PERICENTER":102.4648,"MEAN_ANOMALY":257.6671,"EPHEMERIS_TYPE":0,"CLASSIFICATION_TYPE":"U","NORAD_CAT_ID":48985,"ELEMENT_SET_NO":999,"REV_AT_EPOCH":22617,"BSTAR":-6.2309981e-5,"MEAN_MOTION_DOT":-1.1e-7,"MEAN_MOTION_DDOT":0},{"OBJECT_NAME":"ONEWEB-0268","OBJECT_ID":"2021-060V","EPOCH":"2026-03-07T01:05:03.899328","MEAN_MOTION":13.16593845,"ECCENTRICITY":0.00015394,"INCLINATION":87.9003,"RA_OF_ASC_NODE":249.0983,"ARG_OF_PERICENTER":96.378,"MEAN_ANOMALY":263.7526,"EPHEMERIS_TYPE":0,"CLASSIFICATION_TYPE":"U","NORAD_CAT_ID":48986,"ELEMENT_SET_NO":999,"REV_AT_EPOCH":22641,"BSTAR":0.00014781298,"MEAN_MOTION_DOT":6.9e-7,"MEAN_MOTION_DDOT":0},{"OBJECT_NAME":"ONEWEB-0269","OBJECT_ID":"2021-060W","EPOCH":"2026-03-07T06:06:00.529056","MEAN_MOTION":13.16593745,"ECCENTRICITY":0.00014139,"INCLINATION":87.899,"RA_OF_ASC_NODE":249.0705,"ARG_OF_PERICENTER":89.1798,"MEAN_ANOMALY":270.9495,"EPHEMERIS_TYPE":0,"CLASSIFICATION_TYPE":"U","NORAD_CAT_ID":48987,"ELEMENT_SET_NO":999,"REV_AT_EPOCH":22621,"BSTAR":0.00052958852,"MEAN_MOTION_DOT":2.15e-6,"MEAN_MOTION_DDOT":0},{"OBJECT_NAME":"ONEWEB-0270","OBJECT_ID":"2021-060X","EPOCH":"2026-03-06T23:13:21.036576","MEAN_MOTION":13.16593744,"ECCENTRICITY":0.00019204,"INCLINATION":87.9005,"RA_OF_ASC_NODE":249.1156,"ARG_OF_PERICENTER":104.3605,"MEAN_ANOMALY":255.7739,"EPHEMERIS_TYPE":0,"CLASSIFICATION_TYPE":"U","NORAD_CAT_ID":48988,"ELEMENT_SET_NO":999,"REV_AT_EPOCH":22621,"BSTAR":0.00014839243,"MEAN_MOTION_DOT":7.0e-7,"MEAN_MOTION_DDOT":0},{"OBJECT_NAME":"ONEWEB-0271","OBJECT_ID":"2021-060Y","EPOCH":"2026-03-06T22:55:06.147264","MEAN_MOTION":13.16596579,"ECCENTRICITY":0.00016701,"INCLINATION":87.9005,"RA_OF_ASC_NODE":249.109,"ARG_OF_PERICENTER":104.7092,"MEAN_ANOMALY":255.4224,"EPHEMERIS_TYPE":0,"CLASSIFICATION_TYPE":"U","NORAD_CAT_ID":48989,"ELEMENT_SET_NO":999,"REV_AT_EPOCH":22621,"BSTAR":0.00028214818,"MEAN_MOTION_DOT":1.21e-6,"MEAN_MOTION_DDOT":0},{"OBJECT_NAME":"ONEWEB-0272","OBJECT_ID":"2021-060Z","EPOCH":"2026-03-07T04:55:18.784992","MEAN_MOTION":13.1659626,"ECCENTRICITY":0.00014588,"INCLINATION":87.9003,"RA_OF_ASC_NODE":249.0702,"ARG_OF_PERICENTER":103.0922,"MEAN_ANOMALY":257.0372,"EPHEMERIS_TYPE":0,"CLASSIFICATION_TYPE":"U","NORAD_CAT_ID":48990,"ELEMENT_SET_NO":999,"REV_AT_EPOCH":22619,"BSTAR":2.0991381e-5,"MEAN_MOTION_DOT":2.1e-7,"MEAN_MOTION_DDOT":0},{"OBJECT_NAME":"ONEWEB-0273","OBJECT_ID":"2021-060AA","EPOCH":"2026-03-06T23:58:56.699904","MEAN_MOTION":13.16593512,"ECCENTRICITY":0.00017206,"INCLINATION":87.9004,"RA_OF_ASC_NODE":249.1095,"ARG_OF_PERICENTER":100.7184,"MEAN_ANOMALY":259.4141,"EPHEMERIS_TYPE":0,"CLASSIFICATION_TYPE":"U","NORAD_CAT_ID":48991,"ELEMENT_SET_NO":999,"REV_AT_EPOCH":22614,"BSTAR":-8.859954e-5,"MEAN_MOTION_DOT":-2.1e-7,"MEAN_MOTION_DDOT":0},{"OBJECT_NAME":"ONEWEB-0274","OBJECT_ID":"2021-060AB","EPOCH":"2026-03-07T00:35:25.471104","MEAN_MOTION":13.16593547,"ECCENTRICITY":0.00012793,"INCLINATION":87.8991,"RA_OF_ASC_NODE":249.118,"ARG_OF_PERICENTER":99.763,"MEAN_ANOMALY":260.3645,"EPHEMERIS_TYPE":0,"CLASSIFICATION_TYPE":"U","NORAD_CAT_ID":48992,"ELEMENT_SET_NO":999,"REV_AT_EPOCH":22618,"BSTAR":0.00010428748,"MEAN_MOTION_DOT":5.3e-7,"MEAN_MOTION_DDOT":0},{"OBJECT_NAME":"ONEWEB-0275","OBJECT_ID":"2021-060AC","EPOCH":"2026-03-07T00:19:27.701184","MEAN_MOTION":13.16593786,"ECCENTRICITY":0.00015538,"INCLINATION":87.9,"RA_OF_ASC_NODE":249.099,"ARG_OF_PERICENTER":98.8359,"MEAN_ANOMALY":261.2948,"EPHEMERIS_TYPE":0,"CLASSIFICATION_TYPE":"U","NORAD_CAT_ID":48993,"ELEMENT_SET_NO":999,"REV_AT_EPOCH":22611,"BSTAR":4.251645e-5,"MEAN_MOTION_DOT":2.9e-7,"MEAN_MOTION_DDOT":0},{"OBJECT_NAME":"ONEWEB-0276","OBJECT_ID":"2021-060AD","EPOCH":"2026-03-07T01:07:20.724960","MEAN_MOTION":13.16594272,"ECCENTRICITY":0.00017672,"INCLINATION":87.9005,"RA_OF_ASC_NODE":249.0924,"ARG_OF_PERICENTER":94.7424,"MEAN_ANOMALY":265.3909,"EPHEMERIS_TYPE":0,"CLASSIFICATION_TYPE":"U","NORAD_CAT_ID":48994,"ELEMENT_SET_NO":999,"REV_AT_EPOCH":22613,"BSTAR":0.00030954978,"MEAN_MOTION_DOT":1.31e-6,"MEAN_MOTION_DDOT":0},{"OBJECT_NAME":"ONEWEB-0277","OBJECT_ID":"2021-060AE","EPOCH":"2026-03-07T05:04:26.035680","MEAN_MOTION":13.16585871,"ECCENTRICITY":0.00015299,"INCLINATION":87.8992,"RA_OF_ASC_NODE":249.0755,"ARG_OF_PERICENTER":100.4881,"MEAN_ANOMALY":259.6422,"EPHEMERIS_TYPE":0,"CLASSIFICATION_TYPE":"U","NORAD_CAT_ID":48995,"ELEMENT_SET_NO":999,"REV_AT_EPOCH":22614,"BSTAR":0.0019436284,"MEAN_MOTION_DOT":7.56e-6,"MEAN_MOTION_DDOT":0},{"OBJECT_NAME":"ONEWEB-0278","OBJECT_ID":"2021-060AF","EPOCH":"2026-03-07T01:11:53.767968","MEAN_MOTION":13.1659433,"ECCENTRICITY":0.00016997,"INCLINATION":87.9005,"RA_OF_ASC_NODE":249.0888,"ARG_OF_PERICENTER":87.5894,"MEAN_ANOMALY":272.5431,"EPHEMERIS_TYPE":0,"CLASSIFICATION_TYPE":"U","NORAD_CAT_ID":48996,"ELEMENT_SET_NO":999,"REV_AT_EPOCH":22625,"BSTAR":0.00016082707,"MEAN_MOTION_DOT":7.4e-7,"MEAN_MOTION_DDOT":0},{"OBJECT_NAME":"ONEWEB-0279","OBJECT_ID":"2021-060AG","EPOCH":"2026-03-07T05:02:10.157856","MEAN_MOTION":13.1659402,"ECCENTRICITY":0.00015884,"INCLINATION":87.9009,"RA_OF_ASC_NODE":249.0558,"ARG_OF_PERICENTER":105.6083,"MEAN_ANOMALY":254.5223,"EPHEMERIS_TYPE":0,"CLASSIFICATION_TYPE":"U","NORAD_CAT_ID":48997,"ELEMENT_SET_NO":999,"REV_AT_EPOCH":22620,"BSTAR":1.5524392e-5,"MEAN_MOTION_DOT":1.9e-7,"MEAN_MOTION_DDOT":0},{"OBJECT_NAME":"ONEWEB-0280","OBJECT_ID":"2021-060AH","EPOCH":"2026-03-06T23:55:32.096064","MEAN_MOTION":13.16594142,"ECCENTRICITY":0.00020003,"INCLINATION":87.9005,"RA_OF_ASC_NODE":249.1036,"ARG_OF_PERICENTER":95.4616,"MEAN_ANOMALY":264.6743,"EPHEMERIS_TYPE":0,"CLASSIFICATION_TYPE":"U","NORAD_CAT_ID":48998,"ELEMENT_SET_NO":999,"REV_AT_EPOCH":22611,"BSTAR":-1.8922059e-5,"MEAN_MOTION_DOT":6.0e-8,"MEAN_MOTION_DDOT":0},{"OBJECT_NAME":"ONEWEB-0281","OBJECT_ID":"2021-060AJ","EPOCH":"2026-03-07T07:21:14.807232","MEAN_MOTION":13.16593426,"ECCENTRICITY":0.0001503,"INCLINATION":87.8999,"RA_OF_ASC_NODE":249.0362,"ARG_OF_PERICENTER":95.2015,"MEAN_ANOMALY":264.9288,"EPHEMERIS_TYPE":0,"CLASSIFICATION_TYPE":"U","NORAD_CAT_ID":48999,"ELEMENT_SET_NO":999,"REV_AT_EPOCH":22622,"BSTAR":-9.9001006e-5,"MEAN_MOTION_DOT":-2.5e-7,"MEAN_MOTION_DDOT":0},{"OBJECT_NAME":"ONEWEB-0282","OBJECT_ID":"2021-060AK","EPOCH":"2026-03-07T06:15:07.679520","MEAN_MOTION":13.16593343,"ECCENTRICITY":0.00016948,"INCLINATION":87.9002,"RA_OF_ASC_NODE":249.0559,"ARG_OF_PERICENTER":98.8793,"MEAN_ANOMALY":261.253,"EPHEMERIS_TYPE":0,"CLASSIFICATION_TYPE":"U","NORAD_CAT_ID":49000,"ELEMENT_SET_NO":999,"REV_AT_EPOCH":22619,"BSTAR":0.00036995406,"MEAN_MOTION_DOT":1.54e-6,"MEAN_MOTION_DDOT":0}]
