ONEWEB-0267             
1 48985U 21060U   26066.22883669 -.00000011  00000+0 -62310-4 0  9996
2 48985  87.9004 249.0518 0001673 102.4648 257.6671 13.16593285226170
ONEWEB-0268             
1 48986U 21060V   26066.04518402  .00000069  00000+0  14781-3 0  9996
2 48986  87.9003 249.0983 0001539  96.3780 263.7526 13.16593845226411
ONEWEB-0269             
1 48987U 21060W   26066.25417279  .00000215  00000+0  52959-3 0  9992
2 48987  87.8990 249.0705 0001413  89.1798 270.9495 13.16593745226210
ONEWEB-0270             
1 48988U 21060X   26065.96760459  .00000070  00000+0  14839-3 0  9995
2 48988  87.9005 249.1156 0001920 104.3605 255.7739 13.16593744226211
ONEWEB-0271             
1 48989U 21060Y   26065.95493226  .00000121  00000+0  28215-3 0  9990
2 48989  87.9005 249.1090 0001670 104.7092 255.4224 13.16596579226210
ONEWEB-0272             
1 48990U 21060Z   26066.20507853  .00000021  00000+0  20991-4 0  9996
2 48990  87.9003 249.0702 0001458 103.0922 257.0372 13.16596260226193
ONEWEB-0273             
1 48991U 21060AA  26065.99926736 -.00000021  00000+0 -88600-4 0  9990
2 48991  87.9004 249.1095 0001720 100.7184 259.4141 13.16593512226149
ONEWEB-0274             
1 48992U 21060AB  26066.02460036  .00000053  00000+0  10429-3 0  9998
2 48992  87.8991 249.1180 0001279  99.7630 260.3645 13.16593547226183
ONEWEB-0275             
1 48993U 21060AC  26066.01351506  .00000029  00000+0  42516-4 0  9995
2 48993  87.9000 249.0990 0001553  98.8359 261.2948 13.16593786226111
ONEWEB-0276             
1 48994U 21060AD  26066.04676765  .00000131  00000+0  30955-3 0  9993
2 48994  87.9005 249.0924 0001767  94.7424 265.3909 13.16594272226134
ONEWEB-0277             
1 48995U 21060AE  26066.21141245  .00000756  00000+0  19436-2 0  9996
2 48995  87.8992 249.0755 0001529 100.4881 259.6422 13.16585871226141
ONEWEB-0278             
1 48996U 21060AF  26066.04992787  .00000074  00000+0  16083-3 0  9992
2 48996  87.9005 249.0888 0001699  87.5894 272.5431 13.16594330226258
ONEWEB-0279             
1 48997U 21060AG  26066.20983979  .00000019  00000+0  15524-4 0  9993
2 48997  87.9009 249.0558 0001588 105.6083 254.5223 13.16594020226206
ONEWEB-0280             
1 48998U 21060AH  26065.99689926  .00000006  00000+0 -18922-4 0  9996
2 48998  87.9005 249.1036 0002000  95.4616 264.6743 13.16594142226117
ONEWEB-0281             
1 48999U 21060AJ  26066.30642138 -.00000025  00000+0 -99001-4 0  9996
2 48999  87.8999 249.0362 0001503  95.2015 264.9288 13.16593426226221
ONEWEB-0282             
1 49000U 21060AK  26066.26050555  .00000154  00000+0  36995-3 0  9994
2 49000  87.9002 249.0559 0001694  98.8793 261.2530 13.16593343226196
